{
  "type": "FeatureCollection",
  "features": [
    {
      "type": "Feature",
      "properties": {
        "norad_id": 34022,
        "name": "COSMOS 2251 DEB",
        "group": "cosmos-2251-debris",
        "lat": -38.97406699936307,
        "lon": 92.0975528032686,
        "alt_km": 771.3111027932582,
        "timestamp": "2025-12-19T06:59:44.300171+00:00",
        "meta_object_name": "COSMOS 2251 DEB",
        "meta_object_id": "1993-036HH",
        "meta_epoch": "2025-12-18T20:16:15.060000",
        "meta_mean_motion": 14.38972287,
        "meta_eccentricity": 0.00229161,
        "meta_inclination": 74.0541,
        "meta_ra_of_asc_node": 259.5464,
        "meta_arg_of_pericenter": 323.5041,
        "meta_mean_anomaly": 103.5501,
        "meta_ephemeris_type": 0,
        "meta_classification_type": "U",
        "meta_norad_cat_id": 34022,
        "meta_element_set_no": 999,
        "meta_rev_at_epoch": 88283,
        "meta_bstar": 0.00016921562,
        "meta_mean_motion_dot": 4.97e-06,
        "meta_mean_motion_ddot": 0,
        "tle_line1": "1 34022U 93036HH  25352.84461875  .00000497  00000+0  16922-3 0  9994",
        "tle_line2": "2 34022  74.0541 259.5464 0022916 323.5041 103.5501 14.38972287882832"
      },
      "geometry": {
        "type": "Point",
        "coordinates": [
          92.0975528032686,
          -38.97406699936307
        ]
      }
    },
    {
      "type": "Feature",
      "properties": {
        "norad_id": 34023,
        "name": "COSMOS 2251 DEB",
        "group": "cosmos-2251-debris",
        "lat": 1.7397249952574334,
        "lon": 59.12031145596283,
        "alt_km": 771.1847578047445,
        "timestamp": "2025-12-19T06:59:44.300182+00:00",
        "meta_object_name": "COSMOS 2251 DEB",
        "meta_object_id": "1993-036HJ",
        "meta_epoch": "2025-12-18T16:58:48.662688",
        "meta_mean_motion": 14.40573342,
        "meta_eccentricity": 0.00186958,
        "meta_inclination": 74.0246,
        "meta_ra_of_asc_node": 240.6992,
        "meta_arg_of_pericenter": 335.4416,
        "meta_mean_anomaly": 55.398,
        "meta_ephemeris_type": 0,
        "meta_classification_type": "U",
        "meta_norad_cat_id": 34023,
        "meta_element_set_no": 999,
        "meta_rev_at_epoch": 88300,
        "meta_bstar": 0.00023300897,
        "meta_mean_motion_dot": 7.17e-06,
        "meta_mean_motion_ddot": 0,
        "tle_line1": "1 34023U 93036HJ  25352.70750767  .00000717  00000+0  23301-3 0  9995",
        "tle_line2": "2 34023  74.0246 240.6992 0018695 335.4416  55.3980 14.40573342883006"
      },
      "geometry": {
        "type": "Point",
        "coordinates": [
          59.12031145596283,
          1.7397249952574334
        ]
      }
    },
    {
      "type": "Feature",
      "properties": {
        "norad_id": 34024,
        "name": "COSMOS 2251 DEB",
        "group": "cosmos-2251-debris",
        "lat": 61.44260715977819,
        "lon": -24.30809455901766,
        "alt_km": 762.8573283268634,
        "timestamp": "2025-12-19T06:59:44.300192+00:00",
        "meta_object_name": "COSMOS 2251 DEB",
        "meta_object_id": "1993-036HK",
        "meta_epoch": "2025-12-18T22:35:17.181312",
        "meta_mean_motion": 14.35402979,
        "meta_eccentricity": 0.00213159,
        "meta_inclination": 74.0468,
        "meta_ra_of_asc_node": 304.6267,
        "meta_arg_of_pericenter": 353.9721,
        "meta_mean_anomaly": 62.3385,
        "meta_ephemeris_type": 0,
        "meta_classification_type": "U",
        "meta_norad_cat_id": 34024,
        "meta_element_set_no": 999,
        "meta_rev_at_epoch": 88113,
        "meta_bstar": 0.00014225604,
        "meta_mean_motion_dot": 3.83e-06,
        "meta_mean_motion_ddot": 0,
        "tle_line1": "1 34024U 93036HK  25352.94117108  .00000383  00000+0  14226-3 0  9993",
        "tle_line2": "2 34024  74.0468 304.6267 0021315 353.9721  62.3385 14.35402979881136"
      },
      "geometry": {
        "type": "Point",
        "coordinates": [
          -24.30809455901766,
          61.44260715977819
        ]
      }
    },
    {
      "type": "Feature",
      "properties": {
        "norad_id": 34026,
        "name": "COSMOS 2251 DEB",
        "group": "cosmos-2251-debris",
        "lat": 72.34119556940813,
        "lon": 80.166605777804,
        "alt_km": 1038.0436488754212,
        "timestamp": "2025-12-19T06:59:44.300202+00:00",
        "meta_object_name": "COSMOS 2251 DEB",
        "meta_object_id": "1993-036HM",
        "meta_epoch": "2025-12-17T16:40:17.033376",
        "meta_mean_motion": 13.65315727,
        "meta_eccentricity": 0.035016,
        "meta_inclination": 73.7668,
        "meta_ra_of_asc_node": 329.0456,
        "meta_arg_of_pericenter": 198.3141,
        "meta_mean_anomaly": 336.8728,
        "meta_ephemeris_type": 0,
        "meta_classification_type": "U",
        "meta_norad_cat_id": 34026,
        "meta_element_set_no": 999,
        "meta_rev_at_epoch": 83599,
        "meta_bstar": 0.00043861076,
        "meta_mean_motion_dot": 5.19e-06,
        "meta_mean_motion_ddot": 0,
        "tle_line1": "1 34026U 93036HM  25351.69464159  .00000519  00000+0  43861-3 0  9995",
        "tle_line2": "2 34026  73.7668 329.0456 0350160 198.3141 336.8728 13.65315727835996"
      },
      "geometry": {
        "type": "Point",
        "coordinates": [
          80.166605777804,
          72.34119556940813
        ]
      }
    },
    {
      "type": "Feature",
      "properties": {
        "norad_id": 34028,
        "name": "COSMOS 2251 DEB",
        "group": "cosmos-2251-debris",
        "lat": 31.380163942934814,
        "lon": 147.04933743251186,
        "alt_km": 829.6033554504256,
        "timestamp": "2025-12-19T06:59:44.300213+00:00",
        "meta_object_name": "COSMOS 2251 DEB",
        "meta_object_id": "1993-036HP",
        "meta_epoch": "2025-12-18T09:01:48.565056",
        "meta_mean_motion": 13.20627267,
        "meta_eccentricity": 0.0543563,
        "meta_inclination": 73.8835,
        "meta_ra_of_asc_node": 338.6086,
        "meta_arg_of_pericenter": 115.4867,
        "meta_mean_anomaly": 358.6311,
        "meta_ephemeris_type": 0,
        "meta_classification_type": "U",
        "meta_norad_cat_id": 34028,
        "meta_element_set_no": 999,
        "meta_rev_at_epoch": 81082,
        "meta_bstar": 0.00046025377,
        "meta_mean_motion_dot": 3.9e-06,
        "meta_mean_motion_ddot": 0,
        "tle_line1": "1 34028U 93036HP  25352.37625654  .00000390  00000+0  46025-3 0  9994",
        "tle_line2": "2 34028  73.8835 338.6086 0543563 115.4867 358.6311 13.20627267810827"
      },
      "geometry": {
        "type": "Point",
        "coordinates": [
          147.04933743251186,
          31.380163942934814
        ]
      }
    },
    {
      "type": "Feature",
      "properties": {
        "norad_id": 34031,
        "name": "COSMOS 2251 DEB",
        "group": "cosmos-2251-debris",
        "lat": 67.64157574384319,
        "lon": -100.99292479391185,
        "alt_km": 698.9276084053845,
        "timestamp": "2025-12-19T06:59:44.300223+00:00",
        "meta_object_name": "COSMOS 2251 DEB",
        "meta_object_id": "1993-036HS",
        "meta_epoch": "2025-12-18T19:41:22.092576",
        "meta_mean_motion": 14.59754189,
        "meta_eccentricity": 0.00229534,
        "meta_inclination": 74.0128,
        "meta_ra_of_asc_node": 124.0937,
        "meta_arg_of_pericenter": 244.1115,
        "meta_mean_anomaly": 267.2458,
        "meta_ephemeris_type": 0,
        "meta_classification_type": "U",
        "meta_norad_cat_id": 34031,
        "meta_element_set_no": 999,
        "meta_rev_at_epoch": 88654,
        "meta_bstar": 0.00096906347,
        "meta_mean_motion_dot": 4.615e-05,
        "meta_mean_motion_ddot": 0,
        "tle_line1": "1 34031U 93036HS  25352.82039459  .00004615  00000+0  96906-3 0  9997",
        "tle_line2": "2 34031  74.0128 124.0937 0022953 244.1115 267.2458 14.59754189886548"
      },
      "geometry": {
        "type": "Point",
        "coordinates": [
          -100.99292479391185,
          67.64157574384319
        ]
      }
    },
    {
      "type": "Feature",
      "properties": {
        "norad_id": 34035,
        "name": "COSMOS 2251 DEB",
        "group": "cosmos-2251-debris",
        "lat": 73.79083179729689,
        "lon": 56.177777899128664,
        "alt_km": 722.5221593187016,
        "timestamp": "2025-12-19T06:59:44.300234+00:00",
        "meta_object_name": "COSMOS 2251 DEB",
        "meta_object_id": "1993-036HW",
        "meta_epoch": "2025-12-18T05:52:51.906144",
        "meta_mean_motion": 14.52010653,
        "meta_eccentricity": 0.0045054,
        "meta_inclination": 74.0652,
        "meta_ra_of_asc_node": 338.7856,
        "meta_arg_of_pericenter": 339.1544,
        "meta_mean_anomaly": 39.6359,
        "meta_ephemeris_type": 0,
        "meta_classification_type": "U",
        "meta_norad_cat_id": 34035,
        "meta_element_set_no": 999,
        "meta_rev_at_epoch": 88046,
        "meta_bstar": 0.0014074339,
        "meta_mean_motion_dot": 5.739e-05,
        "meta_mean_motion_ddot": 0,
        "tle_line1": "1 34035U 93036HW  25352.24504521  .00005739  00000+0  14074-2 0  9997",
        "tle_line2": "2 34035  74.0652 338.7856 0045054 339.1544  39.6359 14.52010653880466"
      },
      "geometry": {
        "type": "Point",
        "coordinates": [
          56.177777899128664,
          73.79083179729689
        ]
      }
    }
  ]
}